CCSDS_OMM_VERS = 2.0
CREATION_DATE  = 
ORIGINATOR     = 

OBJECT_NAME    = SZ-21 MODULE
OBJECT_ID      = 2025-246C
CENTER_NAME    = EARTH
REF_FRAME      = TEME
TIME_SYSTEM    = UTC
MEAN_ELEMENT_THEORY = SGP/SGP4

EPOCH          = 2025-11-30T12:27:52.631424
MEAN_MOTION    = 15.61610790
ECCENTRICITY   = .0005518
INCLINATION    = 41.4761
RA_OF_ASC_NODE = 90.5441
ARG_OF_PERICENTER = 186.5766
MEAN_ANOMALY   = 173.5001

EPHEMERIS_TYPE = 0
CLASSIFICATION_TYPE = U
NORAD_CAT_ID   = 66515
ELEMENT_SET_NO = 999
REV_AT_EPOCH   = 253
BSTAR          = .34028E-3
MEAN_MOTION_DOT = .29903E-3
MEAN_MOTION_DDOT = 0

CCSDS_OMM_VERS = 2.0
CREATION_DATE  = 
ORIGINATOR     = 

OBJECT_NAME    = SHENZHOU-22
OBJECT_ID      = 2025-272A
CENTER_NAME    = EARTH
REF_FRAME      = TEME
TIME_SYSTEM    = UTC
MEAN_ELEMENT_THEORY = SGP/SGP4

EPOCH          = 2025-11-29T06:14:14.206560
MEAN_MOTION    = 15.58389811
ECCENTRICITY   = .00106693
INCLINATION    = 41.4663
RA_OF_ASC_NODE = 98.4914
ARG_OF_PERICENTER = 292.2705
MEAN_ANOMALY   = 67.7001

EPHEMERIS_TYPE = 0
CLASSIFICATION_TYPE = U
NORAD_CAT_ID   = 66645
ELEMENT_SET_NO = 999
REV_AT_EPOCH   = 26178
BSTAR          = .20254705E-3
MEAN_MOTION_DOT = .15582E-3
MEAN_MOTION_DDOT = 0

CCSDS_OMM_VERS = 2.0
CREATION_DATE  = 
ORIGINATOR     = 

OBJECT_NAME    = CZ-2F R/B
OBJECT_ID      = 2025-272B
CENTER_NAME    = EARTH
REF_FRAME      = TEME
TIME_SYSTEM    = UTC
MEAN_ELEMENT_THEORY = SGP/SGP4

EPOCH          = 2025-11-26T11:17:54.506400
MEAN_MOTION    = 16.01945612
ECCENTRICITY   = .01210796
INCLINATION    = 41.4431
RA_OF_ASC_NODE = 114.9009
ARG_OF_PERICENTER = 133.7676
MEAN_ANOMALY   = 227.3272

EPHEMERIS_TYPE = 0
CLASSIFICATION_TYPE = U
NORAD_CAT_ID   = 66646
ELEMENT_SET_NO = 999
REV_AT_EPOCH   = 21
BSTAR          = .29319366E-3
MEAN_MOTION_DOT = .449059E-2
MEAN_MOTION_DDOT = .7567612E-5

CCSDS_OMM_VERS = 2.0
CREATION_DATE  = 
ORIGINATOR     = 

OBJECT_NAME    = SOYUZ-MS 28
OBJECT_ID      = 2025-275A
CENTER_NAME    = EARTH
REF_FRAME      = TEME
TIME_SYSTEM    = UTC
MEAN_ELEMENT_THEORY = SGP/SGP4

EPOCH          = 2025-11-30T09:57:44.551008
MEAN_MOTION    = 15.49203939
ECCENTRICITY   = .0003703
INCLINATION    = 51.6312
RA_OF_ASC_NODE = 203.4912
ARG_OF_PERICENTER = 186.5330
MEAN_ANOMALY   = 173.5610

EPHEMERIS_TYPE = 0
CLASSIFICATION_TYPE = U
NORAD_CAT_ID   = 66664
ELEMENT_SET_NO = 999
REV_AT_EPOCH   = 53
BSTAR          = .14718E-3
MEAN_MOTION_DOT = .7725E-4
MEAN_MOTION_DDOT = 0

CCSDS_OMM_VERS = 2.0
CREATION_DATE  = 
ORIGINATOR     = 

OBJECT_NAME    = SL-4 R/B
OBJECT_ID      = 2025-275B
CENTER_NAME    = EARTH
REF_FRAME      = TEME
TIME_SYSTEM    = UTC
MEAN_ELEMENT_THEORY = SGP/SGP4

EPOCH          = 2025-11-29T08:19:25.067424
MEAN_MOTION    = 16.43094745
ECCENTRICITY   = .0004581
INCLINATION    = 51.6501
RA_OF_ASC_NODE = 207.6669
ARG_OF_PERICENTER = 68.9636
MEAN_ANOMALY   = 291.1882

EPHEMERIS_TYPE = 0
CLASSIFICATION_TYPE = U
NORAD_CAT_ID   = 66665
ELEMENT_SET_NO = 999
REV_AT_EPOCH   = 33
BSTAR          = .39285E-3
MEAN_MOTION_DOT = .8397088E-1
MEAN_MOTION_DDOT = .12512E-4

